H1 CPF 01  gfz 2022 06 04 12  6552 terrasarx 
H2 0702601  6201 31698    2022 06 04 12 59 42 2022 06 09 00 00 42   120 1 1  0 0 0
H9
10 0 59734  79902.000000  0    1546422.681  -4411347.564   5050429.813
10 0 59734  80022.000000  0    1118200.435  -3820204.183   5612345.335
10 0 59734  80142.000000  0     681450.137  -3154783.403   6075561.626
10 0 59734  80262.000000  0     245001.400  -2426652.566   6431972.599
10 0 59734  80382.000000  0    -182540.966  -1648614.579   6675347.893
10 0 59734  80502.000000  0    -592964.877   -834480.496   6801435.889
10 0 59734  80622.000000  0    -978607.429      1177.157   6808034.593
10 0 59734  80742.000000  0   -1332497.143    843285.676   6695027.569
10 0 59734  80862.000000  0   -1648479.516   1676543.410   6464385.506
10 0 59734  80982.000000  0   -1921324.243   2485696.848   6120134.167
10 0 59734  81102.000000  0   -2146812.520   3255820.008   5668288.417
10 0 59734  81222.000000  0   -2321802.680   3972591.291   5116752.997
10 0 59734  81342.000000  0   -2444274.235   4622564.179   4475191.417
10 0 59734  81462.000000  0   -2513348.509   5193426.415   3754861.843
10 0 59734  81582.000000  0   -2529285.282   5674241.634   2968422.300
10 0 59734  81702.000000  0   -2493454.958   6055667.025   2129708.029
10 0 59734  81822.000000  0   -2408287.373   6330142.796   1253485.796
10 0 59734  81942.000000  0   -2277197.617   6492048.484    355188.728
10 0 59734  82062.000000  0   -2104491.007   6537821.860   -549362.759
10 0 59734  82182.000000  0   -1895249.869   6466037.696  -1444248.740
10 0 59734  82302.000000  0   -1655203.680   6277441.925  -2313741.982
10 0 59734  82422.000000  0   -1390586.076   5974937.588  -3142591.754
10 0 59734  82542.000000  0   -1107984.720   5563530.732  -3916293.166
10 0 59734  82662.000000  0    -814187.510   5050236.686  -4621341.306
10 0 59734  82782.000000  0    -516028.255   4443948.221  -5245463.040
10 0 59734  82902.000000  0    -220235.237   3755271.309  -5777824.134
10 0 59734  83022.000000  0      66714.256   2996330.155  -6209208.965
10 0 59734  83142.000000  0     338729.607   2180546.413  -6532168.712
10 0 59734  83262.000000  0     590230.112   1322399.811  -6741138.156
10 0 59734  83382.000000  0     816254.779    437172.521  -6832522.600
10 0 59734  83502.000000  0    1012556.406   -459319.031  -6804752.803
10 0 59734  83622.000000  0    1175678.602  -1351001.332  -6658308.062
10 0 59734  83742.000000  0    1303014.893  -2221824.024  -6395707.386
10 0 59734  83862.000000  0    1392850.043  -3056040.968  -6021471.908
10 0 59734  83982.000000  0    1444382.589  -3838491.415  -5542057.146
10 0 59734  84102.000000  0    1457727.089  -4554876.111  -4965751.450
10 0 59734  84222.000000  0    1433897.804  -5192020.093  -4302543.056
10 0 59734  84342.000000  0    1374772.686  -5738121.408  -3563958.618
10 0 59734  84462.000000  0    1283037.448  -6182979.549  -2762871.055
10 0 59734  84582.000000  0    1162112.197  -6518197.199  -1913280.608
10 0 59734  84702.000000  0    1016061.540  -6737351.141  -1030071.762
10 0 59734  84822.000000  0     849488.911  -6836126.572   -128749.933
10 0 59734  84942.000000  0     667418.681  -6812410.348    774836.174
10 0 59734  85062.000000  0     475168.936  -6666341.472   1664780.563
10 0 59734  85182.000000  0     278217.910  -6400316.682   2525409.403
10 0 59734  85302.000000  0      82067.543  -6018948.988   3341567.249
10 0 59734  85422.000000  0    -107892.894  -5528979.897   4098890.696
10 0 59734  85542.000000  0    -286519.023  -4939151.929   4784064.129
10 0 59734  85662.000000  0    -449035.869  -4260042.901   5385055.396
10 0 59734  85782.000000  0    -591151.618  -3503866.533   5891325.709
10 0 59734  85902.000000  0    -709158.698  -2684242.640   6294011.206
10 0 59734  86022.000000  0    -800019.793  -1815944.112   6586070.454
10 0 59734  86142.000000  0    -861437.398   -914627.992   6762400.706
10 0 59734  86262.000000  0    -891906.191      3448.350   6819923.052
10 0 59734  86382.000000  0    -890747.106    921721.048   6757633.067
10 0 59735    102.000000  0    -858121.320   1823618.172   6576617.227
10 0 59735    222.000000  0    -795024.733   2692858.151   6280035.021
10 0 59735    342.000000  0    -703263.521   3513743.715   5873067.473
10 0 59735    462.000000  0    -585411.084   4271447.637   5362831.766
10 0 59735    582.000000  0    -444746.590   4952284.262   4758262.766
10 0 59735    702.000000  0    -285176.739   5543964.709   4069962.820
10 0 59735    822.000000  0    -111141.157   6035826.103   3310018.321
10 0 59735    942.000000  0      72494.408   6419033.713   2491793.115
10 0 59735   1062.000000  0     260557.100   6686754.253   1629690.043
10 0 59735   1182.000000  0     447695.765   6834283.939    738891.137
10 0 59735   1302.000000  0     628514.732   6859136.477   -164916.082
10 0 59735   1422.000000  0     797709.877   6761086.879  -1065823.629
10 0 59735   1542.000000  0     950201.975   6542168.660  -1947991.878
10 0 59735   1662.000000  0    1081264.481   6206626.701  -2795935.214
10 0 59735   1782.000000  0    1186643.469   5760826.598  -3594799.209
10 0 59735   1902.000000  0    1262666.819   5213122.997  -4330623.365
10 0 59735   2022.000000  0    1306339.784   4573690.628  -4990583.987
10 0 59735   2142.000000  0    1315424.757   3854323.140  -5563212.017
10 0 59735   2262.000000  0    1288503.430   3068206.428  -6038583.948
10 0 59735   2382.000000  0    1225020.571   2229669.601  -6408483.667
10 0 59735   2502.000000  0    1125308.582   1353920.821  -6666531.954
10 0 59735   2622.000000  0     990593.192    456773.251  -6808286.600
10 0 59735   2742.000000  0     822979.919   -445636.892  -6831310.963
10 0 59735   2862.000000  0     625421.394  -1337135.050  -6735210.310
10 0 59735   2982.000000  0     401666.363  -2201790.283  -6521636.276
10 0 59735   3102.000000  0     156191.518  -3024191.857  -6194262.916
10 0 59735   3222.000000  0    -105884.723  -3789720.838  -5758731.685
10 0 59735   3342.000000  0    -378903.543  -4484808.530  -5222562.917
10 0 59735   3462.000000  0    -656781.133  -5097179.156  -4595037.643
10 0 59735   3582.000000  0    -933137.277  -5616073.244  -3887048.284
10 0 59735   3702.000000  0   -1201434.289  -6032446.277  -3110918.939
10 0 59735   3822.000000  0   -1455123.209  -6339137.685  -2280197.787
10 0 59735   3942.000000  0   -1687794.427  -6531006.879  -1409424.306
10 0 59735   4062.000000  0   -1893328.806  -6605031.667   -513873.784
10 0 59735   4182.000000  0   -2066045.550  -6560365.101    390715.333
10 0 59735   4302.000000  0   -2200843.355  -6398348.700   1288425.235
10 0 59735   4422.000000  0   -2293330.782  -6122481.466   2163447.615
10 0 59735   4542.000000  0   -2339942.217  -5738345.050   3000371.292
10 0 59735   4662.000000  0   -2338035.992  -5253486.837   3784461.548
10 0 59735   4782.000000  0   -2285972.529  -4677264.737   4501924.696
10 0 59735   4902.000000  0   -2183171.144  -4020658.742   5140152.988
10 0 59735   5022.000000  0   -2030144.698  -3296053.044   5687946.722
10 0 59735   5142.000000  0   -1828509.956  -2516993.034   6135707.589
10 0 59735   5262.000000  0   -1580973.868  -1697926.122   6475601.024
10 0 59735   5382.000000  0   -1291297.482   -853930.087   6701687.854
10 0 59735   5502.000000  0    -964238.557      -432.279   6810021.548
10 0 59735   5622.000000  0    -605473.768    847071.759   6798711.870
10 0 59735   5742.000000  0    -221500.169   1673298.882   6667956.707
10 0 59735   5862.000000  0     180482.450   2463453.698   6420038.882
10 0 59735   5982.000000  0     592706.015   3203493.300   6059288.380
10 0 59735   6102.000000  0    1006982.725   3880377.986   5592011.702
10 0 59735   6222.000000  0    1414865.967   4482304.753   5026387.406
10 0 59735   6342.000000  0    1807821.027   4998919.147   4372329.043
10 0 59735   6462.000000  0    2177402.323   5421500.371   3641315.908
10 0 59735   6582.000000  0    2515434.193   5743116.278   2846196.355
10 0 59735   6702.000000  0    2814189.726   5958748.292   2000961.604
10 0 59735   6822.000000  0    3066564.632   6065375.693   1120494.325
10 0 59735   6942.000000  0    3266239.687   6062019.275    220300.171
10 0 59735   7062.000000  0    3407828.936   5949744.764   -683772.818
10 0 59735   7182.000000  0    3487010.464   5731624.420  -1575821.770
10 0 59735   7302.000000  0    3500635.403   5412658.892  -2440176.335
10 0 59735   7422.000000  0    3446813.217   4999660.890  -3261680.933
10 0 59735   7542.000000  0    3324969.918   4501103.274  -4025964.734
10 0 59735   7662.000000  0    3135878.877   3926937.194  -4719692.464
10 0 59735   7782.000000  0    2881664.380   3288386.298  -5330793.631
10 0 59735   7902.000000  0    2565778.329   2597720.270  -5848665.579
10 0 59735   8022.000000  0    2192951.036   1868014.080  -6264347.743
10 0 59735   8142.000000  0    1769117.109   1112898.227  -6570665.068
10 0 59735   8262.000000  0    1301319.972    346305.494  -6762339.916
10 0 59735   8382.000000  0     797595.054   -417781.935  -6836074.745
10 0 59735   8502.000000  0     266832.285  -1165582.909  -6790602.322
10 0 59735   8622.000000  0    -281377.257  -1883759.219  -6626703.410
10 0 59735   8742.000000  0    -836909.652  -2559646.698  -6347195.716
10 0 59735   8862.000000  0   -1389290.836  -3181475.375  -5956891.594
10 0 59735   8982.000000  0   -1927889.103  -3738572.662  -5462523.059
10 0 59735   9102.000000  0   -2442115.730  -4221547.840  -4872637.521
10 0 59735   9222.000000  0   -2921631.871  -4622456.064  -4197461.993
10 0 59735   9342.000000  0   -3356556.506  -4934936.119  -3448735.354
10 0 59735   9462.000000  0   -3737670.742  -5154319.399  -2639512.398
10 0 59735   9582.000000  0   -4056615.144  -5277707.834  -1783941.318
10 0 59735   9702.000000  0   -4306074.712  -5304017.804   -897017.393
10 0 59735   9822.000000  0   -4479946.262  -5233988.389      5682.722
10 0 59735   9942.000000  0   -4573483.585  -5070153.031    908280.705
99
